{
  "type": "FeatureCollection",
  "features": [
    {
      "type": "Feature",
      "properties": {
        "norad_id": 66052,
        "name": "HRC MONOBLOCK CAMERA",
        "group": "stations",
        "lat": 41.17097843365052,
        "lon": -55.74047040964167,
        "alt_km": 398.4952609135453,
        "timestamp": "2025-12-07T09:35:08.590883+00:00",
        "meta_object_name": "HRC MONOBLOCK CAMERA",
        "meta_object_id": "1998-067XR",
        "meta_epoch": "2025-12-06T22:15:10.603584",
        "meta_mean_motion": 15.53573464,
        "meta_eccentricity": 0.00040212,
        "meta_inclination": 51.6285,
        "meta_ra_of_asc_node": 170.4765,
        "meta_arg_of_pericenter": 160.7333,
        "meta_mean_anomaly": 199.381,
        "meta_ephemeris_type": 0,
        "meta_classification_type": "U",
        "meta_norad_cat_id": 66052,
        "meta_element_set_no": 999,
        "meta_rev_at_epoch": 793,
        "meta_bstar": 0.00071615141,
        "meta_mean_motion_dot": 0.00046263,
        "meta_mean_motion_ddot": 0,
        "tle_line1": "1 66052U 98067XR  25340.92720606  .00046263  00000+0  71615-3 0  9998",
        "tle_line2": "2 66052  51.6285 170.4765 0004021 160.7333 199.3810 15.53573464  7931"
      },
      "geometry": {
        "type": "Point",
        "coordinates": [
          -55.74047040964167,
          41.17097843365052
        ]
      }
    },
    {
      "type": "Feature",
      "properties": {
        "norad_id": 66174,
        "name": "HTV-X1",
        "group": "stations",
        "lat": 50.43440327254713,
        "lon": -84.59507647981393,
        "alt_km": 412.5561623412241,
        "timestamp": "2025-12-07T09:35:08.590894+00:00",
        "meta_object_name": "HTV-X1",
        "meta_object_id": "2025-241A",
        "meta_epoch": "2025-12-06T20:46:13.238400",
        "meta_mean_motion": 15.49374779,
        "meta_eccentricity": 0.00034973,
        "meta_inclination": 51.6304,
        "meta_ra_of_asc_node": 171.5636,
        "meta_arg_of_pericenter": 213.1314,
        "meta_mean_anomaly": 146.9456,
        "meta_ephemeris_type": 0,
        "meta_classification_type": "U",
        "meta_norad_cat_id": 66174,
        "meta_element_set_no": 999,
        "meta_rev_at_epoch": 51,
        "meta_bstar": 0.00025393652,
        "meta_mean_motion_dot": 0.0001375,
        "meta_mean_motion_ddot": 0,
        "tle_line1": "1 66174U 25241A   25340.86543100  .00013750  00000+0  25394-3 0  9990",
        "tle_line2": "2 66174  51.6304 171.5636 0003497 213.1314 146.9456 15.49374779   519"
      },
      "geometry": {
        "type": "Point",
        "coordinates": [
          -84.59507647981393,
          50.43440327254713
        ]
      }
    },
    {
      "type": "Feature",
      "properties": {
        "norad_id": 66515,
        "name": "SZ-21 MODULE",
        "group": "stations",
        "lat": -22.223521198436412,
        "lon": -103.83790639825384,
        "alt_km": 379.54906285079505,
        "timestamp": "2025-12-07T09:35:08.590904+00:00",
        "meta_object_name": "SZ-21 MODULE",
        "meta_object_id": "2025-246C",
        "meta_epoch": "2025-12-06T21:55:46.522560",
        "meta_mean_motion": 15.62073048,
        "meta_eccentricity": 0.00061635,
        "meta_inclination": 41.4777,
        "meta_ra_of_asc_node": 51.5754,
        "meta_arg_of_pericenter": 227.7607,
        "meta_mean_anomaly": 132.271,
        "meta_ephemeris_type": 0,
        "meta_classification_type": "U",
        "meta_norad_cat_id": 66515,
        "meta_element_set_no": 999,
        "meta_rev_at_epoch": 353,
        "meta_bstar": 0.00038291804,
        "meta_mean_motion_dot": 0.00034334,
        "meta_mean_motion_ddot": 0,
        "tle_line1": "1 66515U 25246C   25340.91373290  .00034334  00000+0  38292-3 0  9993",
        "tle_line2": "2 66515  41.4777  51.5754 0006163 227.7607 132.2710 15.62073048  3532"
      },
      "geometry": {
        "type": "Point",
        "coordinates": [
          -103.83790639825384,
          -22.223521198436412
        ]
      }
    },
    {
      "type": "Feature",
      "properties": {
        "norad_id": 66645,
        "name": "SHENZHOU-22",
        "group": "stations",
        "lat": 6.456293065091571,
        "lon": 56.48192560615698,
        "alt_km": 383.78638965394384,
        "timestamp": "2025-12-07T09:35:08.590916+00:00",
        "meta_object_name": "SHENZHOU-22",
        "meta_object_id": "2025-272A",
        "meta_epoch": "2025-12-06T21:14:35.052288",
        "meta_mean_motion": 15.58811356,
        "meta_eccentricity": 0.00094534,
        "meta_inclination": 41.4683,
        "meta_ra_of_asc_node": 52.2413,
        "meta_arg_of_pericenter": 344.5349,
        "meta_mean_anomaly": 15.5199,
        "meta_ephemeris_type": 0,
        "meta_classification_type": "U",
        "meta_norad_cat_id": 66645,
        "meta_element_set_no": 999,
        "meta_rev_at_epoch": 26300,
        "meta_bstar": 0.00035334049,
        "meta_mean_motion_dot": 0.00027906,
        "meta_mean_motion_ddot": 0,
        "tle_line1": "1 66645U 25272A   25340.88512792  .00027906  00000+0  35334-3 0  9995",
        "tle_line2": "2 66645  41.4683  52.2413 0009453 344.5349  15.5199 15.58811356263009"
      },
      "geometry": {
        "type": "Point",
        "coordinates": [
          56.48192560615698,
          6.456293065091571
        ]
      }
    },
    {
      "type": "Feature",
      "properties": {
        "norad_id": 66646,
        "name": "CZ-2F R/B",
        "group": "stations",
        "lat": -31.771299989303213,
        "lon": -92.46538694840118,
        "alt_km": 151.0399795250696,
        "timestamp": "2025-12-07T09:35:08.590929+00:00",
        "meta_object_name": "CZ-2F R/B",
        "meta_object_id": "2025-272B",
        "meta_epoch": "2025-12-06T20:55:41.021184",
        "meta_mean_motion": 16.34691308,
        "meta_eccentricity": 0.0038093,
        "meta_inclination": 41.4537,
        "meta_ra_of_asc_node": 46.5611,
        "meta_arg_of_pericenter": 222.6714,
        "meta_mean_anomaly": 137.119,
        "meta_ephemeris_type": 0,
        "meta_classification_type": "U",
        "meta_norad_cat_id": 66646,
        "meta_element_set_no": 999,
        "meta_rev_at_epoch": 189,
        "meta_bstar": 0.00045837,
        "meta_mean_motion_dot": 0.04803871,
        "meta_mean_motion_ddot": 7.8554e-06,
        "tle_line1": "1 66646U 25272B   25340.87200256  .04803871  78554-5  45837-3 0  9995",
        "tle_line2": "2 66646  41.4537  46.5611 0038093 222.6714 137.1190 16.34691308  1895"
      },
      "geometry": {
        "type": "Point",
        "coordinates": [
          -92.46538694840118,
          -31.771299989303213
        ]
      }
    },
    {
      "type": "Feature",
      "properties": {
        "norad_id": 66664,
        "name": "SOYUZ-MS 28",
        "group": "stations",
        "lat": 50.43440262511966,
        "lon": -84.59507202717992,
        "alt_km": 412.5561623215053,
        "timestamp": "2025-12-07T09:35:08.590939+00:00",
        "meta_object_name": "SOYUZ-MS 28",
        "meta_object_id": "2025-275A",
        "meta_epoch": "2025-12-06T20:46:13.238400",
        "meta_mean_motion": 15.49374779,
        "meta_eccentricity": 0.00034973,
        "meta_inclination": 51.6304,
        "meta_ra_of_asc_node": 171.5636,
        "meta_arg_of_pericenter": 213.1314,
        "meta_mean_anomaly": 146.9456,
        "meta_ephemeris_type": 0,
        "meta_classification_type": "U",
        "meta_norad_cat_id": 66664,
        "meta_element_set_no": 999,
        "meta_rev_at_epoch": 128,
        "meta_bstar": 0.00025393652,
        "meta_mean_motion_dot": 0.0001375,
        "meta_mean_motion_ddot": 0,
        "tle_line1": "1 66664U 25275A   25340.86543100  .00013750  00000+0  25394-3 0  9991",
        "tle_line2": "2 66664  51.6304 171.5636 0003497 213.1314 146.9456 15.49374779  1288"
      },
      "geometry": {
        "type": "Point",
        "coordinates": [
          -84.59507202717992,
          50.43440262511966
        ]
      }
    },
    {
      "type": "Feature",
      "properties": {
        "norad_id": 66906,
        "name": "1998-067XS",
        "group": "stations",
        "lat": 46.31135329824197,
        "lon": -67.14651941874425,
        "alt_km": 408.7373808538705,
        "timestamp": "2025-12-07T09:35:08.590949+00:00",
        "meta_object_name": "1998-067XS",
        "meta_object_id": "1998-067XS",
        "meta_epoch": "2025-12-06T22:16:16.867200",
        "meta_mean_motion": 15.50144102,
        "meta_eccentricity": 0.00041468,
        "meta_inclination": 51.6299,
        "meta_ra_of_asc_node": 171.2315,
        "meta_arg_of_pericenter": 177.6061,
        "meta_mean_anomaly": 182.4948,
        "meta_ephemeris_type": 0,
        "meta_classification_type": "U",
        "meta_norad_cat_id": 66906,
        "meta_element_set_no": 999,
        "meta_rev_at_epoch": 71,
        "meta_bstar": 0.00061899955,
        "meta_mean_motion_dot": 0.00035216,
        "meta_mean_motion_ddot": 0,
        "tle_line1": "1 66906U 98067XS  25340.92797300  .00035216  00000+0  61900-3 0  9993",
        "tle_line2": "2 66906  51.6299 171.2315 0004146 177.6061 182.4948 15.50144102   711"
      },
      "geometry": {
        "type": "Point",
        "coordinates": [
          -67.14651941874425,
          46.31135329824197
        ]
      }
    }
  ]
}